STARLINK-2022           
1 47643U 21012Z   24208.66782164  .00002472  00000+0  18487-3 0  9991
2 47643  53.0531 184.8138 0001342 101.1749 258.9391 15.06388348191182
